[{"OBJECT_NAME":"YUNHAI-2 02F","OBJECT_ID":"2024-052F","EPOCH":"2026-03-09T21:57:33.541056","MEAN_MOTION":14.27880758,"ECCENTRICITY":0.00054431,"INCLINATION":50.0098,"RA_OF_ASC_NODE":263.5952,"ARG_OF_PERICENTER":191.0997,"MEAN_ANOMALY":168.9799,"EPHEMERIS_TYPE":0,"CLASSIFICATION_TYPE":"U","NORAD_CAT_ID":59285,"ELEMENT_SET_NO":999,"REV_AT_EPOCH":10497,"BSTAR":0.0001263727,"MEAN_MOTION_DOT":1.54e-6,"MEAN_MOTION_DDOT":0},{"OBJECT_NAME":"CZ-2C DEB","OBJECT_ID":"2004-046D","EPOCH":"2026-03-09T23:02:02.478624","MEAN_MOTION":14.51071818,"ECCENTRICITY":0.01041945,"INCLINATION":98.6274,"RA_OF_ASC_NODE":154.2134,"ARG_OF_PERICENTER":141.0148,"MEAN_ANOMALY":319.3332,"EPHEMERIS_TYPE":0,"CLASSIFICATION_TYPE":"U","NORAD_CAT_ID":28482,"ELEMENT_SET_NO":999,"REV_AT_EPOCH":11423,"BSTAR":0.0014344622,"MEAN_MOTION_DOT":6.049e-5,"MEAN_MOTION_DDOT":0}]
